{
    "links": {
        "self": "http://www.neowsapp.com/rest/v1/neo/3753643?api_key=iIulBulltgU6a56xZRHN4H3l9WmuAYTsLGpBGhQ2"
    },
    "id": "3753643",
    "neo_reference_id": "3753643",
    "name": "(2016 LF)",
    "designation": "2016 LF",
    "nasa_jpl_url": "http://ssd.jpl.nasa.gov/sbdb.cgi?sstr=3753643",
    "absolute_magnitude_h": 23.1,
    "estimated_diameter": {
        "kilometers": {
            "estimated_diameter_min": 0.063760979,
            "estimated_diameter_max": 0.1425738833
        },
        "meters": {
            "estimated_diameter_min": 63.7609789875,
            "estimated_diameter_max": 142.5738833281
        },
        "miles": {
            "estimated_diameter_min": 0.0396192233,
            "estimated_diameter_max": 0.0885912765
        },
        "feet": {
            "estimated_diameter_min": 209.1895703015,
            "estimated_diameter_max": 467.7620993781
        }
    },
    "is_potentially_hazardous_asteroid": false,
    "close_approach_data": [
        {
            "close_approach_date": "2014-10-06",
            "close_approach_date_full": "2014-Oct-06 01:02",
            "epoch_date_close_approach": 1412557320000,
            "relative_velocity": {
                "kilometers_per_second": "4.66025106",
                "kilometers_per_hour": "16776.9038160987",
                "miles_per_hour": "10424.5155961754"
            },
            "miss_distance": {
                "astronomical": "1.7432416888",
                "lunar": "678.1210169432",
                "kilometers": "260785243.539682856",
                "miles": "162044436.2352051728"
            },
            "orbiting_body": "Juptr"
        },
        {
            "close_approach_date": "2016-06-13",
            "close_approach_date_full": "2016-Jun-13 10:23",
            "epoch_date_close_approach": 1465813380000,
            "relative_velocity": {
                "kilometers_per_second": "14.2007449385",
                "kilometers_per_hour": "51122.6817787123",
                "miles_per_hour": "31765.6463530004"
            },
            "miss_distance": {
                "astronomical": "0.1012471641",
                "lunar": "39.3851468349",
                "kilometers": "15146360.092900467",
                "miles": "9411511.7441297646"
            },
            "orbiting_body": "Earth"
        }
    ],
    "orbital_data": {
        "orbit_id": "7",
        "orbit_determination_date": "2017-04-06 08:25:39",
        "first_observation_date": "2016-06-01",
        "last_observation_date": "2016-06-07",
        "data_arc_in_days": 6,
        "observations_used": 31,
        "orbit_uncertainty": "8",
        "minimum_orbit_intersection": ".0332005",
        "jupiter_tisserand_invariant": "3.240",
        "epoch_osculation": "2457542.5",
        "eccentricity": ".661962036891536",
        "semi_major_axis": "2.318864859480788",
        "inclination": "5.680161542323814",
        "ascending_node_longitude": "42.53102846695005",
        "orbital_period": "1289.767964749937",
        "perihelion_distance": ".7838643538226802",
        "perihelion_argument": "277.450292271473",
        "aphelion_distance": "3.853865365138895",
        "perihelion_time": "2457592.782735386339",
        "mean_anomaly": "345.9650842369994",
        "mean_motion": ".2791199733897853",
        "equinox": "J2000",
        "orbit_class": {
            "orbit_class_type": "APO",
            "orbit_class_description": "Near-Earth asteroid orbits which cross the Earth’s orbit similar to that of 1862 Apollo",
            "orbit_class_range": "a (semi-major axis) > 1.0 AU; q (perihelion) < 1.017 AU"
        }
    },
    "is_sentry_object": false
}